[{"OBJECT_NAME":"STARLINK-32564","OBJECT_ID":"2024-207N","EPOCH":"2026-03-09T00:12:29.929536","MEAN_MOTION":15.2759924,"ECCENTRICITY":0.00024261,"INCLINATION":43.003,"RA_OF_ASC_NODE":289.4151,"ARG_OF_PERICENTER":269.0259,"MEAN_ANOMALY":91.0314,"EPHEMERIS_TYPE":0,"CLASSIFICATION_TYPE":"U","NORAD_CAT_ID":61924,"ELEMENT_SET_NO":999,"REV_AT_EPOCH":7457,"BSTAR":0.0010535307,"MEAN_MOTION_DOT":0.0002886,"MEAN_MOTION_DDOT":0},{"OBJECT_NAME":"FLOCK 4G-6","OBJECT_ID":"2025-009BD","EPOCH":"2026-03-09T17:03:16.973568","MEAN_MOTION":15.27432125,"ECCENTRICITY":0.00023795,"INCLINATION":97.398,"RA_OF_ASC_NODE":150.7943,"ARG_OF_PERICENTER":348.2637,"MEAN_ANOMALY":11.8546,"EPHEMERIS_TYPE":0,"CLASSIFICATION_TYPE":"U","NORAD_CAT_ID":62660,"ELEMENT_SET_NO":999,"REV_AT_EPOCH":12130,"BSTAR":0.00045909501,"MEAN_MOTION_DOT":0.00012261,"MEAN_MOTION_DDOT":0}]
