STARLINK-32564          
1 61924U 24207N   26068.00867974  .00028860  00000+0  10535-2 0  9999
2 61924  43.0030 289.4151 0002426 269.0259  91.0314 15.27599240 74576
FLOCK 4G-6              
1 62660U 25009BD  26068.71061311  .00012261  00000+0  45910-3 0  9991
2 62660  97.3980 150.7943 0002380 348.2637  11.8546 15.27432125121307
